[
  {
    "CCSDS_OMM_VERS": "2.0",
    "COMMENT": "GENERATED VIA SPACE-TRACK.ORG API",
    "CREATION_DATE": "2021-12-04T06:56:11",
    "ORIGINATOR": "18 SPCS",
    "OBJECT_NAME": "THOR ABLESTAR DEB",
    "OBJECT_ID": "1961-015EB",
    "CENTER_NAME": "EARTH",
    "REF_FRAME": "TEME",
    "TIME_SYSTEM": "UTC",
    "MEAN_ELEMENT_THEORY": "SGP4",
    "EPOCH": "2021-12-03T23:54:17.536320",
    "MEAN_MOTION": "14.41534486",
    "ECCENTRICITY": "0.00338790",
    "INCLINATION": "66.6637",
    "RA_OF_ASC_NODE": "60.3306",
    "ARG_OF_PERICENTER": "105.3497",
    "MEAN_ANOMALY": "255.1355",
    "EPHEMERIS_TYPE": "0",
    "CLASSIFICATION_TYPE": "U",
    "NORAD_CAT_ID": "402",
    "ELEMENT_SET_NO": "999",
    "REV_AT_EPOCH": "10093",
    "BSTAR": "0.00044699000000",
    "MEAN_MOTION_DOT": "0.00001377",
    "MEAN_MOTION_DDOT": "0.0000000000000",
    "SEMIMAJOR_AXIS": "7131.570",
    "PERIOD": "99.894",
    "APOAPSIS": "777.596",
    "PERIAPSIS": "729.274",
    "OBJECT_TYPE": "DEBRIS",
    "RCS_SIZE": "SMALL",
    "COUNTRY_CODE": "US",
    "LAUNCH_DATE": "1961-06-29",
    "SITE": "AFETR",
    "DECAY_DATE": null,
    "FILE": "3232046",
    "GP_ID": "191043552",
    "TLE_LINE0": "0 THOR ABLESTAR DEB",
    "TLE_LINE1": "1   402U 61015EB  21337.99603630  .00001377  00000-0  44699-3 0  9994",
    "TLE_LINE2": "2   402  66.6637  60.3306 0033879 105.3497 255.1355 14.41534486100938"
  },
  {
    "CCSDS_OMM_VERS": "2.0",
    "COMMENT": "GENERATED VIA SPACE-TRACK.ORG API",
    "CREATION_DATE": "2021-12-04T06:16:11",
    "ORIGINATOR": "18 SPCS",
    "OBJECT_NAME": "THOR ABLESTAR DEB",
    "OBJECT_ID": "1961-015EC",
    "CENTER_NAME": "EARTH",
    "REF_FRAME": "TEME",
    "TIME_SYSTEM": "UTC",
    "MEAN_ELEMENT_THEORY": "SGP4",
    "EPOCH": "2021-12-04T03:21:30.996576",
    "MEAN_MOTION": "13.80795619",
    "ECCENTRICITY": "0.00276230",
    "INCLINATION": "66.8414",
    "RA_OF_ASC_NODE": "296.3655",
    "ARG_OF_PERICENTER": "252.6516",
    "MEAN_ANOMALY": "196.4432",
    "EPHEMERIS_TYPE": "0",
    "CLASSIFICATION_TYPE": "U",
    "NORAD_CAT_ID": "403",
    "ELEMENT_SET_NO": "999",
    "REV_AT_EPOCH": "4300",
    "BSTAR": "0.00001259500000",
    "MEAN_MOTION_DOT": "-0.00000061",
    "MEAN_MOTION_DDOT": "0.0000000000000",
    "SEMIMAJOR_AXIS": "7339.203",
    "PERIOD": "104.288",
    "APOAPSIS": "981.341",
    "PERIAPSIS": "940.795",
    "OBJECT_TYPE": "DEBRIS",
    "RCS_SIZE": "SMALL",
    "COUNTRY_CODE": "US",
    "LAUNCH_DATE": "1961-06-29",
    "SITE": "AFETR",
    "DECAY_DATE": null,
    "FILE": "3231941",
    "GP_ID": "191041124",
    "TLE_LINE0": "0 THOR ABLESTAR DEB",
    "TLE_LINE1": "1   403U 61015EC  21338.13994209 -.00000061  00000-0  12595-4 0  9998",
    "TLE_LINE2": "2   403  66.8414 296.3655 0027623 252.6516 196.4432 13.80795619 43006"
  },
  {
    "CCSDS_OMM_VERS": "2.0",
    "COMMENT": "GENERATED VIA SPACE-TRACK.ORG API",
    "CREATION_DATE": "2021-12-03T17:32:05",
    "ORIGINATOR": "18 SPCS",
    "OBJECT_NAME": "THOR ABLESTAR DEB",
    "OBJECT_ID": "1961-015ED",
    "CENTER_NAME": "EARTH",
    "REF_FRAME": "TEME",
    "TIME_SYSTEM": "UTC",
    "MEAN_ELEMENT_THEORY": "SGP4",
    "EPOCH": "2021-12-03T12:31:05.198880",
    "MEAN_MOTION": "12.90535607",
    "ECCENTRICITY": "0.05622110",
    "INCLINATION": "66.4714",
    "RA_OF_ASC_NODE": "333.4177",
    "ARG_OF_PERICENTER": "337.6013",
    "MEAN_ANOMALY": "20.1305",
    "EPHEMERIS_TYPE": "0",
    "CLASSIFICATION_TYPE": "U",
    "NORAD_CAT_ID": "404",
    "ELEMENT_SET_NO": "999",
    "REV_AT_EPOCH": "82935",
    "BSTAR": "0.00052742000000",
    "MEAN_MOTION_DOT": "0.00000220",
    "MEAN_MOTION_DDOT": "0.0000000000000",
    "SEMIMAJOR_AXIS": "7677.536",
    "PERIOD": "111.582",
    "APOAPSIS": "1731.040",
    "PERIAPSIS": "867.761",
    "OBJECT_TYPE": "DEBRIS",
    "RCS_SIZE": "MEDIUM",
    "COUNTRY_CODE": "US",
    "LAUNCH_DATE": "1961-06-29",
    "SITE": "AFETR",
    "DECAY_DATE": null,
    "FILE": "3231740",
    "GP_ID": "190990348",
    "TLE_LINE0": "0 THOR ABLESTAR DEB",
    "TLE_LINE1": "1 00404U 61015ED  21337.52158795  .00000220  00000-0  52742-3 0  9996",
    "TLE_LINE2": "2 00404  66.4714 333.4177 0562211 337.6013  20.1305 12.90535607829352"
  },
  {
    "CCSDS_OMM_VERS": "2.0",
    "COMMENT": "GENERATED VIA SPACE-TRACK.ORG API",
    "CREATION_DATE": "2021-12-04T02:39:20",
    "ORIGINATOR": "18 SPCS",
    "OBJECT_NAME": "THOR ABLESTAR DEB",
    "OBJECT_ID": "1961-015EE",
    "CENTER_NAME": "EARTH",
    "REF_FRAME": "TEME",
    "TIME_SYSTEM": "UTC",
    "MEAN_ELEMENT_THEORY": "SGP4",
    "EPOCH": "2021-12-03T15:17:07.278720",
    "MEAN_MOTION": "13.65876838",
    "ECCENTRICITY": "0.00911310",
    "INCLINATION": "66.8942",
    "RA_OF_ASC_NODE": "68.2445",
    "ARG_OF_PERICENTER": "239.2813",
    "MEAN_ANOMALY": "189.4085",
    "EPHEMERIS_TYPE": "0",
    "CLASSIFICATION_TYPE": "U",
    "NORAD_CAT_ID": "405",
    "ELEMENT_SET_NO": "999",
    "REV_AT_EPOCH": "585",
    "BSTAR": "0.00004306800000",
    "MEAN_MOTION_DOT": "-0.00000035",
    "MEAN_MOTION_DDOT": "0.0000000000000",
    "SEMIMAJOR_AXIS": "7392.548",
    "PERIOD": "105.427",
    "APOAPSIS": "1081.782",
    "PERIAPSIS": "947.044",
    "OBJECT_TYPE": "DEBRIS",
    "RCS_SIZE": "SMALL",
    "COUNTRY_CODE": "US",
    "LAUNCH_DATE": "1961-06-29",
    "SITE": "AFETR",
    "DECAY_DATE": null,
    "FILE": "3231910",
    "GP_ID": "191018037",
    "TLE_LINE0": "0 THOR ABLESTAR DEB",
    "TLE_LINE1": "1 00405U 61015EE  21337.63688980 -.00000035  00000-0  43068-4 0  9990",
    "TLE_LINE2": "2 00405  66.8942  68.2445 0091131 239.2813 189.4085 13.65876838  5856"
  },
  {
    "CCSDS_OMM_VERS": "2.0",
    "COMMENT": "GENERATED VIA SPACE-TRACK.ORG API",
    "CREATION_DATE": "2021-12-04T02:39:20",
    "ORIGINATOR": "18 SPCS",
    "OBJECT_NAME": "THOR ABLESTAR DEB",
    "OBJECT_ID": "1961-015EF",
    "CENTER_NAME": "EARTH",
    "REF_FRAME": "TEME",
    "TIME_SYSTEM": "UTC",
    "MEAN_ELEMENT_THEORY": "SGP4",
    "EPOCH": "2021-12-03T15:50:27.093984",
    "MEAN_MOTION": "13.67100960",
    "ECCENTRICITY": "0.01153710",
    "INCLINATION": "66.7790",
    "RA_OF_ASC_NODE": "290.8063",
    "ARG_OF_PERICENTER": "62.0919",
    "MEAN_ANOMALY": "355.2675",
    "EPHEMERIS_TYPE": "0",
    "CLASSIFICATION_TYPE": "U",
    "NORAD_CAT_ID": "406",
    "ELEMENT_SET_NO": "999",
    "REV_AT_EPOCH": "99461",
    "BSTAR": "0.00039022000000",
    "MEAN_MOTION_DOT": "0.00000270",
    "MEAN_MOTION_DDOT": "0.0000000000000",
    "SEMIMAJOR_AXIS": "7388.134",
    "PERIOD": "105.332",
    "APOAPSIS": "1095.237",
    "PERIAPSIS": "924.762",
    "OBJECT_TYPE": "DEBRIS",
    "RCS_SIZE": "SMALL",
    "COUNTRY_CODE": "US",
    "LAUNCH_DATE": "1961-06-29",
    "SITE": "AFETR",
    "DECAY_DATE": null,
    "FILE": "3231910",
    "GP_ID": "191016785",
    "TLE_LINE0": "0 THOR ABLESTAR DEB",
    "TLE_LINE1": "1 00406U 61015EF  21337.66003581  .00000270  00000-0  39022-3 0  9996",
    "TLE_LINE2": "2 00406  66.7790 290.8063 0115371  62.0919 355.2675 13.67100960994615"
  },
  {
    "CCSDS_OMM_VERS": "2.0",
    "COMMENT": "GENERATED VIA SPACE-TRACK.ORG API",
    "CREATION_DATE": "2021-12-03T17:32:05",
    "ORIGINATOR": "18 SPCS",
    "OBJECT_NAME": "THOR ABLESTAR DEB",
    "OBJECT_ID": "1961-015EG",
    "CENTER_NAME": "EARTH",
    "REF_FRAME": "TEME",
    "TIME_SYSTEM": "UTC",
    "MEAN_ELEMENT_THEORY": "SGP4",
    "EPOCH": "2021-12-03T12:19:00.288192",
    "MEAN_MOTION": "14.48578594",
    "ECCENTRICITY": "0.00824730",
    "INCLINATION": "66.3276",
    "RA_OF_ASC_NODE": "102.2179",
    "ARG_OF_PERICENTER": "310.8885",
    "MEAN_ANOMALY": "127.1787",
    "EPHEMERIS_TYPE": "0",
    "CLASSIFICATION_TYPE": "U",
    "NORAD_CAT_ID": "407",
    "ELEMENT_SET_NO": "999",
    "REV_AT_EPOCH": "8881",
    "BSTAR": "0.00057796000000",
    "MEAN_MOTION_DOT": "0.00002172",
    "MEAN_MOTION_DDOT": "0.0000000000000",
    "SEMIMAJOR_AXIS": "7108.432",
    "PERIOD": "99.408",
    "APOAPSIS": "788.922",
    "PERIAPSIS": "671.671",
    "OBJECT_TYPE": "DEBRIS",
    "RCS_SIZE": "MEDIUM",
    "COUNTRY_CODE": "US",
    "LAUNCH_DATE": "1961-06-29",
    "SITE": "AFETR",
    "DECAY_DATE": null,
    "FILE": "3231740",
    "GP_ID": "190989599",
    "TLE_LINE0": "0 THOR ABLESTAR DEB",
    "TLE_LINE1": "1 00407U 61015EG  21337.51319778  .00002172  00000-0  57796-3 0  9990",
    "TLE_LINE2": "2 00407  66.3276 102.2179 0082473 310.8885 127.1787 14.48578594 88815"
  },
  {
    "CCSDS_OMM_VERS": "2.0",
    "COMMENT": "GENERATED VIA SPACE-TRACK.ORG API",
    "CREATION_DATE": "2021-12-04T02:39:20",
    "ORIGINATOR": "18 SPCS",
    "OBJECT_NAME": "THOR ABLESTAR DEB",
    "OBJECT_ID": "1961-015EH",
    "CENTER_NAME": "EARTH",
    "REF_FRAME": "TEME",
    "TIME_SYSTEM": "UTC",
    "MEAN_ELEMENT_THEORY": "SGP4",
    "EPOCH": "2021-12-03T18:15:16.081056",
    "MEAN_MOTION": "13.75139521",
    "ECCENTRICITY": "0.00681200",
    "INCLINATION": "66.7866",
    "RA_OF_ASC_NODE": "96.4696",
    "ARG_OF_PERICENTER": "170.4776",
    "MEAN_ANOMALY": "263.6585",
    "EPHEMERIS_TYPE": "0",
    "CLASSIFICATION_TYPE": "U",
    "NORAD_CAT_ID": "408",
    "ELEMENT_SET_NO": "999",
    "REV_AT_EPOCH": "7779",
    "BSTAR": "0.00025446000000",
    "MEAN_MOTION_DOT": "0.00000174",
    "MEAN_MOTION_DDOT": "0.0000000000000",
    "SEMIMAJOR_AXIS": "7359.314",
    "PERIOD": "104.717",
    "APOAPSIS": "1031.311",
    "PERIAPSIS": "931.047",
    "OBJECT_TYPE": "DEBRIS",
    "RCS_SIZE": "MEDIUM",
    "COUNTRY_CODE": "US",
    "LAUNCH_DATE": "1961-06-29",
    "SITE": "AFETR",
    "DECAY_DATE": null,
    "FILE": "3231910",
    "GP_ID": "191017787",
    "TLE_LINE0": "0 THOR ABLESTAR DEB",
    "TLE_LINE1": "1 00408U 61015EH  21337.76060279  .00000174  00000-0  25446-3 0  9994",
    "TLE_LINE2": "2 00408  66.7866  96.4696 0068120 170.4776 263.6585 13.75139521 77794"
  }
]
